{"fetched_at":"2026-03-29T16:36:15Z","count":15609,"tles":[{"name":"STARLINK-33723","line1":"1 63593U 25076AA  26087.66103721  .00036835  00000+0  13403-2 0  9992","line2":"2 63593  43.0021 214.3907 0001518 270.3798  89.6880 15.27607264 54733","category":"Starlink"}]}