{
  "norad_id": 63593,
  "name": "STARLINK-33723",
  "history": [
    {
      "epoch": "2026-03-28T15:51:53.614944Z",
      "apogee_km": 484.0089746865624,
      "perigee_km": 481.92594337280116,
      "latitude_deg": 2.117148821579584e-05,
      "longitude_deg": 150.33904313804794,
      "height_km": 482.73758386027544,
      "semi_major_axis_km": 6861.1044590296815,
      "eccentricity": 0.0001518,
      "inclination_deg": 43.0021,
      "raan_deg": 214.3907,
      "arg_perigee_deg": 270.3798,
      "mean_anomaly_deg": 89.688,
      "mean_motion_rev_day": 15.27607264
    }
  ]
}